satname,norad_id,inclination_deg,eccentricity,mean_motion_rev_per_day,perigee_km,apogee_km,l1,l2
STARLINK-1316,45415,53.1552,0.0004443,15.39795622,443.6808812434756,449.7454430975804,1 45415U 20019BH  26169.86193155  .00033288  00000+0  83356-3 0  9994,2 45415  53.1552  15.9617 0004443 119.1300 241.0150 15.39795622345533
STARLINK-1286,45417,53.0464,0.0002226,15.65294975,370.8878814275049,373.8932162922574,1 45417U 20019BK  26169.78808366  .00046162  00000+0  45885-3 0  9994,2 45417  53.0464   0.6544 0002226 291.4160  68.6617 15.65294975345974
STARLINK-1308,45419,53.0464,0.0006673,15.66838232,363.4555317330105,372.45886905285533,1 45419U 20019BM  26169.86709928  .00039380  00000+0  36875-3 0  9992,2 45419  53.0464  19.5467 0006673  79.1276 281.0490 15.66838232345463
STARLINK-1329,45531,53.0423,0.0001226,15.74737867,344.55291193976245,346.201517625228,1 45531U 20025A   26169.67751789  .00055553  00000+0  37214-3 0  9993,2 45531  53.0423 303.5830 0001226 252.0096 108.0789 15.74737867341291
STARLINK-1338,45532,53.0444,0.0001248,15.68971357,361.00014386194925,362.6824424439201,1 45532U 20025B   26169.67739352  .00045150  00000+0  38705-3 0  9994,2 45532  53.0444 310.6734 0001248 112.2696 247.8453 15.68971357341190
STARLINK-1350,45535,53.073,0.0001225,15.38460923,449.82335123487064,451.49640647018896,1 45535U 20025E   26169.68730060  .00008675  00000+0  23522-3 0  9997,2 45535  53.0730 277.9324 0001225  73.6629 286.4508 15.38460923341696
STARLINK-1362,45538,53.157,0.00029,15.38337696,449.044093089723,453.00500678868775,1 45538U 20025H   26169.78425878  .00042769  00000+0  11190-2 0  9998,2 45538  53.1570 348.8070 0002900 226.6898 133.3865 15.38337696340692
STARLINK-1368,45540,53.1559,0.0002878,15.38442267,448.7497416173428,452.6804288776111,1 45540U 20025K   26169.79676678  .00042170  00000+0  10998-2 0  9999,2 45540  53.1559 349.1087 0002878 187.3333 172.7630 15.38442267340682
STARLINK-1371,45542,53.0449,0.0002382,15.64203546,373.92159783427815,377.13904494618873,1 45542U 20025M   26169.68484876  .00061147  00000+0  63164-3 0  9995,2 45542  53.0449 320.7289 0002382 208.6521 151.4363 15.64203546341059
STARLINK-1372,45543,53.1584,0.0001771,15.38916892,448.1017919157057,450.52007397355464,1 45543U 20025N   26169.75192002  .00041594  00000+0  10684-2 0  9993,2 45543  53.1584 348.7824 0001771 170.4000 189.7039 15.38916892339782
STARLINK-1373,45544,53.046,0.0001817,15.71026776,354.73768803852727,357.1848593511877,1 45544U 20025P   26169.68229770  .00054623  00000+0  42858-3 0  9995,2 45544  53.0460 315.7375 0001817  61.0196 299.1003 15.71026776341120
STARLINK-1327,45555,53.042,0.0003137,15.68271421,361.73159914909866,365.9615196342611,1 45555U 20025AA  26169.61550909  .00043356  00000+0  38269-3 0  9993,2 45555  53.0420 293.4337 0003137  81.6744 278.4628 15.68271421341423
STARLINK-1356,45564,53.0431,0.000182,15.66093744,368.86682026700146,371.3231767144516,1 45564U 20025AK  26169.77947048  .00039421  00000+0  38066-3 0  9997,2 45564  53.0431 305.9524 0001820 344.0861  16.0096 15.66093744341260
STARLINK-1357,45565,53.0445,0.0002616,15.70711373,355.100850767436,358.62460262444256,1 45565U 20025AL  26169.52654756  .00052057  00000+0  41418-3 0  9997,2 45565  53.0445 263.5795 0002616 139.6999 220.4212 15.70711373341844
STARLINK-1361,45567,53.0424,0.0002568,15.65230132,370.84340089893067,374.3105676012419,1 45567U 20025AN  26169.91627035  .00310271  00000+0  29631-2 0  9999,2 45567  53.0424 303.7321 0002568 351.9618   8.1355 15.65230132341312
STARLINK-1376,45570,53.1576,0.0001713,15.39362389,446.82429460303865,449.16292695029097,1 45570U 20025AR  26169.72629394  .00066458  00000+0  16710-2 0  9991,2 45570  53.1576 325.2741 0001713 149.8200 210.2904 15.39362389341016
STARLINK-1320,45572,53.0409,0.0009697,15.9015441,295.3728063501949,308.3279738945985,1 45572U 20025AT  26170.00002315  .00167810  21345-4  55139-3 0  9997,2 45572  53.0409 198.7359 0009697  13.8537 296.9078 15.90154410  6036
STARLINK-1321,45573,53.042,0.0001461,15.65041889,372.13193156766465,374.1046483633927,1 45573U 20025AU  26169.60066563  .00034610  00000+0  34937-3 0  9991,2 45573  53.0420 289.1098 0001461 287.6341  72.4513 15.65041889341186
STARLINK-1331,45578,53.0454,2.86e-05,15.64900446,373.3319929262234,373.71818799779794,1 45578U 20025AZ  26169.94504472  .00034791  00000+0  35314-3 0  9999,2 45578  53.0454 294.3469 0000286  40.2074 319.8962 15.64900446341456
STARLINK-1333,45580,53.1567,0.0001088,15.36284641,456.36374260300636,457.85109178818766,1 45580U 20025BB  26169.79528059  .00044156  00000+0  12339-2 0  9999,2 45580  53.1567 326.6962 0001088 230.9104 129.1803 15.36284641341003
STARLINK-1335,45581,53.1561,0.0002839,15.37911698,450.34644276848667,454.22475672062046,1 45581U 20025BC  26169.74792668  .00040210  00000+0  10677-2 0  9994,2 45581  53.1561 323.5081 0002839 178.0497 182.0519 15.37911698341033
STARLINK-1337,45582,53.0441,0.0002469,15.7618422,339.604435898641,342.9224758437513,1 45582U 20025BD  26169.85568829  .00074948  00000+0  46889-3 0  9997,2 45582  53.0441 283.2540 0002469 103.1842 256.9453 15.76184220341588
STARLINK-1347,45586,53.0374,5.18e-05,15.69802534,359.112958912855,359.81097416578905,1 45586U 20025BH  26169.95193801  .00044792  00000+0  37111-3 0  9998,2 45586  53.0374 253.7444 0000518  58.9486 301.1581 15.69802534342006
STARLINK-1364,45589,53.0426,0.0001918,15.7054973,356.0329737506281,358.61669691066163,1 45589U 20025BL  26169.76330570  .00049046  00000+0  39330-3 0  9998,2 45589  53.0426 291.3195 0001918 341.0473  19.0472 15.70549730341466
STARLINK-1365,45590,53.0459,0.0001065,15.61148049,383.6194826971141,385.05989023133134,1 45590U 20025BM  26169.69929283  .00079790  00000+0  92441-3 0  9998,2 45590  53.0459 326.5699 0001065 145.1446 214.9637 15.61148049340983
STARLINK-1443,45660,53.1351,0.0001257,15.33499395,464.5211077571148,466.24156826728995,1 45660U 20035D   26169.68049749  .00043471  00000+0  13275-2 0  9990,2 45660  53.1351 316.1372 0001257  82.9788 277.1357 15.33499395334217
STARLINK-1446,45663,53.0202,0.0001382,15.4831985,420.70105460681134,422.58051318628077,1 45663U 20035G   26169.89316715  .00024482  00000+0  46249-3 0  9995,2 45663  53.0202 236.8181 0001382 283.7212  76.3641 15.48319850335323
STARLINK-1448,45665,53.0432,0.0003101,15.69525392,358.1655042471357,362.34465501492286,1 45665U 20035J   26169.73471197  .00049450  00000+0  41362-3 0  9999,2 45665  53.0432 278.9090 0003101 104.6479 255.4881 15.69525392334714
STARLINK-1451,45668,53.0523,9.53e-05,15.1473416,521.1281829263198,522.443308201624,1 45668U 20035M   26169.71731704  .00012304  00000+0  67130-3 0  9992,2 45668  53.0523 328.2348 0000953 141.9195 218.1865 15.14734160334032
STARLINK-1452,45669,53.023,0.0006433,15.60920043,380.647482492539,389.34893225034193,1 45669U 20035N   26169.93456596  .00074212  00000+0  86767-3 0  9993,2 45669  53.0230 253.7418 0006433 348.5089  11.5776 15.60920043335095
STARLINK-1453,45670,53.0376,0.0003005,15.70297319,356.0223689452914,360.07081528415347,1 45670U 20035P   26169.88876120  .00052761  00000+0  42695-3 0  9995,2 45670  53.0376 238.3781 0003005 350.3333   9.7626 15.70297319335193
STARLINK-1454,45671,53.0428,0.0002889,15.67776375,363.3175622869776,367.21390038514346,1 45671U 20035Q   26168.60297579  .00049031  00000+0  44063-3 0  9997,2 45671  53.0428 285.8426 0002889  31.2933 328.8254 15.67776375334512
STARLINK-1456,45673,53.0426,0.0002371,15.66654677,366.88449763923745,370.0837453750564,1 45673U 20035S   26169.59853198  .00044588  00000+0  42001-3 0  9995,2 45673  53.0426 275.6067 0002371 200.3966 159.6955 15.66654677334765
STARLINK-1458,45675,53.0466,0.0002344,15.59085575,388.7157871913614,391.8888315395925,1 45675U 20035U   26169.61354709  .00085093  00000+0  10653-2 0  9997,2 45675  53.0466 290.7690 0002344 356.7068   3.3928 15.59085575334515
STARLINK-1460,45676,53.1574,0.0001885,15.36068634,456.45963411597677,459.0367628358017,1 45676U 20035V   26169.70711008  .00039238  00000+0  11060-2 0  9990,2 45676  53.1574 314.3133 0001885 241.4280 118.6533 15.36068634334207
STARLINK-1392,45677,53.154,0.0002738,15.39522444,445.65162273444366,449.38935277473865,1 45677U 20035W   26169.76638713  .00049930  00000+0  12540-2 0  9992,2 45677  53.1540 312.4062 0002738 263.5603  96.5090 15.39522444334279
STARLINK-1394,45679,53.0392,0.0003098,15.66643638,366.4257007879096,370.60592687135795,1 45679U 20035Y   26169.85919382  .00039297  00000+0  37117-3 0  9991,2 45679  53.0392 264.6316 0003098 221.7275 138.3504 15.66643638334933
STARLINK-1402,45685,53.0406,0.0003631,15.59452073,386.7845663165899,391.6990368022816,1 45685U 20035AE  26169.53230208  .00066805  00000+0  82796-3 0  9994,2 45685  53.0406 257.6210 0003631 262.6615  97.3985 15.59452073335016
STARLINK-1404,45686,53.1572,0.000297,15.45845947,426.87186984151595,430.91524599291915,1 45686U 20035AF  26168.61595358  .00054136  00000+0  10989-2 0  9991,2 45686  53.1572 299.0297 0002970 258.0231 102.0444 15.45845947334367
STARLINK-1413,45689,53.1579,0.0002245,15.36022361,456.3507990678563,459.4201731641224,1 45689U 20035AJ  26169.68134130  .00038175  00000+0  10781-2 0  9994,2 45689  53.1579 299.0845 0002245 292.5240  67.5525 15.36022361334377
STARLINK-1417,45693,53.0506,0.0003707,15.17404935,511.13222870898335,516.2418270432509,1 45693U 20035AN  26169.59972653  .00019439  00000+0  97352-3 0  9991,2 45693  53.0506 315.2338 0003707 180.6044 179.4945 15.17404935334191
STARLINK-1420,45695,53.0433,0.0001453,15.69401145,359.6315801052524,361.58986019272834,1 45695U 20035AQ  26169.91562803  .00041872  00000+0  35315-3 0  9998,2 45695  53.0433 247.2933 0001453 138.5560 221.5567 15.69401145335184
STARLINK-1422,45696,53.1575,0.0002091,15.35918815,456.76324578879485,459.62219887867377,1 45696U 20035AR  26169.68478167  .00027279  00000+0  77713-3 0  9995,2 45696  53.1575 299.0203 0002091 269.7854  90.2910 15.35918815334452
